ONEWEB-0043             
1 45149U 20008U   23319.96643143  .00000582  00000+0  16302-2 0  9995
2 45149  87.8922 223.7897 0002075  62.3064 297.8274 13.10373798184525
ONEWEB-0044             
1 45150U 20008V   23319.99566345 -.00000645  00000+0 -18853-2 0  9993
2 45150  87.8925 223.7817 0001931  65.0684 295.0644 13.10367808185594
ONEWEB-0045             
1 45151U 20008W   23320.14259762  .00000581  00000+0  16031-2 0  9998
2 45151  87.8988 208.6200 0001589  75.1285 285.0019 13.11418755187451
ONEWEB-0047             
1 45152U 20008X   23320.14026102 -.00000281  00000+0 -84062-3 0  9998
2 45152  87.8923 223.7544 0001749  70.4495 289.6821 13.10366896185354
ONEWEB-0048             
1 45153U 20008Y   23320.13538542 -.00000149  00000+0 -46169-3 0  9993
2 45153  87.8922 223.7666 0001731  71.2092 288.9223 13.10368144184942
ONEWEB-0049             
1 45154U 20008Z   23319.75521737 -.00000428  00000+0 -12623-2 0  9995
2 45154  87.8928 223.8133 0001840  73.0174 287.1155 13.10368737184348
ONEWEB-0051             
1 45155U 20008AA  23319.22543762  .00000624  00000+0  17259-2 0  9996
2 45155  87.9000 208.8369 0001446  79.0252 281.1039 13.11419035187235
ONEWEB-0052             
1 45156U 20008AB  23320.13377964  .00000128  00000+0  32952-3 0  9995
2 45156  87.8982 223.7197 0002216  81.0372 279.1006 13.10347273185064
